{
  "norad_id": 58866,
  "name": "STARLINK-31219",
  "history": [
    {
      "epoch": "2026-03-28T19:59:22.879680Z",
      "apogee_km": 483.60550632572176,
      "perigee_km": 482.5071664964289,
      "latitude_deg": -4.4387354644050394e-05,
      "longitude_deg": 14.415537413282426,
      "height_km": 482.7236845438988,
      "semi_major_axis_km": 6861.193336411075,
      "eccentricity": 8.004e-05,
      "inclination_deg": 42.9987,
      "raan_deg": 140.5086,
      "arg_perigee_deg": 281.4156,
      "mean_anomaly_deg": 78.6605,
      "mean_motion_rev_day": 15.27577582
    }
  ]
}